[{"OBJECT_NAME":"STARLINK-2412","OBJECT_ID":"2021-027C","EPOCH":"2026-03-09T12:34:29.396640","MEAN_MOTION":15.30209851,"ECCENTRICITY":0.00016696,"INCLINATION":53.1611,"RA_OF_ASC_NODE":166.0484,"ARG_OF_PERICENTER":69.9486,"MEAN_ANOMALY":290.1695,"EPHEMERIS_TYPE":0,"CLASSIFICATION_TYPE":"U","NORAD_CAT_ID":48094,"ELEMENT_SET_NO":999,"REV_AT_EPOCH":27249,"BSTAR":0.00034051734,"MEAN_MOTION_DOT":9.742e-5,"MEAN_MOTION_DDOT":0},{"OBJECT_NAME":"HERMES-3","OBJECT_ID":"2025-052BR","EPOCH":"2026-03-09T22:30:01.073952","MEAN_MOTION":15.30039786,"ECCENTRICITY":0.00079928,"INCLINATION":97.3987,"RA_OF_ASC_NODE":324.6131,"ARG_OF_PERICENTER":112.9583,"MEAN_ANOMALY":247.2502,"EPHEMERIS_TYPE":0,"CLASSIFICATION_TYPE":"U","NORAD_CAT_ID":63835,"ELEMENT_SET_NO":999,"REV_AT_EPOCH":5486,"BSTAR":0.0006995793,"MEAN_MOTION_DOT":0.00020316,"MEAN_MOTION_DDOT":0}]
